NORAD_CAT_ID,OBJECT_NAME,OBJECT_TYPE,EPOCH,MEAN_MOTION,ECCENTRICITY,INCLINATION,RA_OF_ASC_NODE,ARG_OF_PERICENTER,MEAN_ANOMALY,BSTAR,MEAN_MOTION_DOT,MEAN_MOTION_DDOT,TLE_LINE0,TLE_LINE1,TLE_LINE2,SEMIMAJOR_AXIS,PERIOD,APOGEE,PERIGEE,DECAYED
53575.0,STARLINK-4551,PAYLOAD,2024-03-12 05:04:29,15.08839741,0.00016,53.2163,79.687,88.2705,271.8471,0.00013049,1.789e-05,0.0,0 STARLINK-4551,1 53575U 22101BA  24072.21145776  .00001789  00000-0  13049-3 0  9994,2 53575  53.2163  79.6870 0001600  88.2705 271.8471 15.08839741 86629,6917.881,95.438,540.853,538.639,0.0
53575.0,STARLINK-4551,PAYLOAD,2024-03-12 06:39:53,15.08841483,0.0001578,53.2163,79.3899,87.5482,272.569,0.00010944,1.454e-05,0.0,0 STARLINK-4551,1 53575U 22101BA  24072.27769693  .00001454  00000-0  10944-3 0  9990,2 53575  53.2163  79.3899 0001578  87.5482 272.5690 15.08841483 87320,6917.876,95.437,540.832,538.649,0.0
53575.0,STARLINK-4551,PAYLOAD,2024-03-13 06:30:40,15.08822649,0.0001269,53.2162,74.9275,100.4592,259.6543,0.00037142,5.625e-05,0.0,0 STARLINK-4551,1 53575U 22101BA  24073.27130571  .00005625  00000-0  37142-3 0  9991,2 53575  53.2162  74.9275 0001269 100.4592 259.6543 15.08822649 86787,6917.933,95.439,540.676,538.921,0.0
53575.0,STARLINK-4551,PAYLOAD,2024-03-14 04:46:03,15.08844451,0.0001339,53.2167,70.7652,94.5334,265.5811,0.00010506,1.385e-05,0.0,0 STARLINK-4551,1 53575U 22101BA  24074.19865361  .00001385  00000-0  10506-3 0  9999,2 53575  53.2167  70.7652 0001339  94.5334 265.5811 15.08844451 86925,6917.867,95.437,540.658,538.805,0.0
53575.0,STARLINK-4551,PAYLOAD,2024-03-14 06:21:26,15.08846711,0.000137,53.2167,70.4656,101.0046,259.11,0.000117,1.575e-05,0.0,0 STARLINK-4551,1 53575U 22101BA  24074.26489135  .00001575  00000-0  11700-3 0  9996,2 53575  53.2167  70.4656 0001370 101.0046 259.1100 15.08846711 87624,6917.86,95.437,540.673,538.777,0.0
53575.0,STARLINK-4551,PAYLOAD,2024-03-15 04:36:51,15.08833094,0.0001524,53.2175,66.3041,103.1439,256.9723,2.1553e-05,5.5e-07,0.0,0 STARLINK-4551,1 53575U 22101BA  24075.19226368  .00000055  00000-0  21553-4 0  9996,2 53575  53.2175  66.3041 0001524 103.1439 256.9723 15.08833094 87070,6917.901,95.438,540.821,538.712,0.0
53575.0,STARLINK-4551,PAYLOAD,2024-03-15 06:12:14,15.08833376,0.0001524,53.2176,66.0069,102.989,257.1273,1.9324e-05,2e-07,0.0,0 STARLINK-4551,1 53575U 22101BA  24075.25850359  .00000020  00000-0  19324-4 0  9991,2 53575  53.2176  66.0069 0001524 102.9890 257.1273 15.08833376 87779,6917.901,95.438,540.82,538.711,0.0
53575.0,STARLINK-4551,PAYLOAD,2024-03-16 04:27:38,15.08839619,0.0001459,53.2173,61.8451,102.5812,257.5343,4.164e-05,3.75e-06,0.0,0 STARLINK-4551,1 53575U 22101BA  24076.18586096  .00000375  00000-0  41640-4 0  9997,2 53575  53.2173  61.8451 0001459 102.5812 257.5343 15.08839619 87229,6917.882,95.438,540.756,538.737,0.0
53575.0,STARLINK-4551,PAYLOAD,2024-03-17 04:18:25,15.08836774,0.0001402,53.2175,57.3847,99.2595,260.8555,8.8402e-05,1.119e-05,0.0,0 STARLINK-4551,1 53575U 22101BA  24077.17946458  .00001119  00000-0  88402-4 0  9993,2 53575  53.2175  57.3847 0001402  99.2595 260.8555 15.08836774 88062,6917.89,95.438,540.725,538.785,0.0
53575.0,STARLINK-4551,PAYLOAD,2024-03-17 21:47:40,15.08840104,0.0001725,53.2183,54.113,117.5896,242.5272,7.6437e-05,9.29e-06,0.0,0 STARLINK-4551,1 53575U 22101BA  24077.90810300  .00000929  00000-0  76437-4 0  9993,2 53575  53.2183  54.1130 0001725 117.5896 242.5272 15.08840104 88174,6917.88,95.438,540.938,538.552,0.0
53575.0,STARLINK-4551,PAYLOAD,2024-03-18 04:09:12,15.08843048,0.0001781,53.2184,52.9245,119.5553,240.5616,9.7174e-05,1.259e-05,0.0,0 STARLINK-4551,1 53575U 22101BA  24078.17306019  .00001259  00000-0  97174-4 0  9998,2 53575  53.2184  52.9245 0001781 119.5553 240.5616 15.08843048 87520,6917.871,95.437,540.968,538.504,0.0
53575.0,STARLINK-4551,PAYLOAD,2024-03-18 05:44:35,15.08844944,0.0001391,53.2178,52.6274,92.166,267.9491,0.00010891,1.446e-05,0.0,0 STARLINK-4551,1 53575U 22101BA  24078.23930007  .00001446  00000-0  10891-3 0  9993,2 53575  53.2178  52.6274 0001391  92.1660 267.9491 15.08844944 88222,6917.865,95.437,540.693,538.768,0.0
53575.0,STARLINK-4551,PAYLOAD,2024-03-18 21:38:27,15.08842173,0.0001425,53.2182,49.6549,84.9888,275.1267,7.0881e-05,8.4e-06,0.0,0 STARLINK-4551,1 53575U 22101BA  24078.90170306  .00000840  00000-0  70881-4 0  9998,2 53575  53.2182  49.6549 0001425  84.9888 275.1267 15.08842173 88322,6917.874,95.437,540.725,538.753,0.0
53575.0,STARLINK-4551,PAYLOAD,2024-03-19 04:00:00,15.08823582,0.0001719,53.2187,48.4658,70.621,289.4968,0.00036117,5.462e-05,0.0,0 STARLINK-4551,1 53575U 22101BA  24079.16666805  .00005462  00000-0  36117-3 0  9999,2 53575  53.2187  48.4658 0001719  70.6210 289.4968 15.08823582 87678,6917.931,95.439,540.985,538.606,0.0
53575.0,STARLINK-4551,PAYLOAD,2024-03-19 07:10:45,15.08851585,0.0001524,53.2189,47.8678,97.9867,262.1298,0.00015585,2.194e-05,0.0,0 STARLINK-4551,1 53575U 22101BA  24079.29913485  .00002194  00000-0  15585-3 0  9997,2 53575  53.2189  47.8678 0001524  97.9867 262.1298 15.08851585 88386,6917.845,95.437,540.764,538.656,0.0
53575.0,STARLINK-4551,PAYLOAD,2024-03-19 21:29:13,15.08849166,0.000142,53.2181,45.1919,97.2218,262.8935,4.3237e-05,4e-06,0.0,0 STARLINK-4551,1 53575U 22101BA  24079.89529661  .00000400  00000-0  43237-4 0  9996,2 53575  53.2181  45.1919 0001420  97.2218 262.8935 15.08849166 87785,6917.852,95.437,540.7,538.735,0.0
53575.0,STARLINK-4551,PAYLOAD,2024-03-20 03:50:45,15.08853143,0.0001816,53.2191,44.0052,86.0773,274.0426,0.00011191,1.494e-05,0.0,0 STARLINK-4551,1 53575U 22101BA  24080.16025216  .00001494  00000-0  11191-3 0  9992,2 53575  53.2191  44.0052 0001816  86.0773 274.0426 15.08853143 88515,6917.84,95.437,540.961,538.449,0.0
53575.0,STARLINK-4551,PAYLOAD,2024-03-21 03:41:33,15.08839453,0.0001445,53.2178,39.5398,106.6576,253.4575,-4.4591e-05,-9.98e-06,0.0,0 STARLINK-4551,1 53575U 22101BA  24081.15386349 -.00000998  00000-0 -44591-4 0  9990,2 53575  53.2178  39.5398 0001445 106.6576 253.4575 15.08839453 87973,6917.882,95.438,540.747,538.747,0.0
53575.0,STARLINK-4551,PAYLOAD,2024-03-21 06:52:19,15.08840644,0.0001421,53.2177,38.9446,107.4081,252.7067,-3.4988e-05,-8.45e-06,0.0,0 STARLINK-4551,1 53575U 22101BA  24081.28634227 -.00000845  00000-0 -34988-4 0  9995,2 53575  53.2177  38.9446 0001421 107.4081 252.7067 15.08840644 88684,6917.878,95.438,540.726,538.76,0.0
53575.0,STARLINK-4551,PAYLOAD,2024-03-22 03:32:18,15.088655,0.0001321,53.2185,35.0815,100.6308,259.4833,0.00012991,1.782e-05,0.0,0 STARLINK-4551,1 53575U 22101BA  24082.14744062  .00001782  00000-0  12991-3 0  9998,2 53575  53.2185  35.0815 0001321 100.6308 259.4833 15.08865500 88129,6917.802,95.436,540.581,538.754,0.0
53575.0,STARLINK-4551,PAYLOAD,2024-03-22 06:43:04,15.08868629,0.000127,53.2181,34.4854,102.4745,257.6389,0.00014478,2.019e-05,0.0,0 STARLINK-4551,1 53575U 22101BA  24082.27991613  .00002019  00000-0  14478-3 0  9994,2 53575  53.2181  34.4854 0001270 102.4745 257.6389 15.08868629 88838,6917.793,95.436,540.536,538.779,0.0
53575.0,STARLINK-4551,PAYLOAD,2024-03-22 21:01:35,15.08828098,0.000133,53.2182,31.8104,95.7076,264.4068,-2.4852e-06,-3.27e-06,0.0,0 STARLINK-4551,1 53575U 22101BA  24082.87611021 -.00000327  00000-0 -24852-5 0  9993,2 53575  53.2182  31.8104 0001330  95.7076 264.4068 15.08828098 88236,6917.917,95.438,540.702,538.862,0.0
53575.0,STARLINK-4551,PAYLOAD,2024-03-23 20:52:22,15.08832265,0.0001304,53.2182,27.3475,93.5544,266.5597,-0.00025692,-4.374e-05,0.0,0 STARLINK-4551,1 53575U 22101BA  24083.86971035 -.00004374  00000-0 -25692-3 0  9994,2 53575  53.2182  27.3475 0001304  93.5544 266.5597 15.08832265 89078,6917.904,95.438,540.671,538.867,0.0
53575.0,STARLINK-4551,PAYLOAD,2024-03-24 03:13:54,15.08851686,0.0001457,53.2182,26.1608,118.2482,241.8657,7.7438e-05,9.45e-06,0.0,0 STARLINK-4551,1 53575U 22101BA  24084.13466154  .00000945  00000-0  77438-4 0  9990,2 53575  53.2182  26.1608 0001457 118.2482 241.8657 15.08851686 88427,6917.845,95.437,540.718,538.702,0.0
53575.0,STARLINK-4551,PAYLOAD,2024-03-24 06:24:40,15.08857205,0.0001321,53.2181,25.5634,94.8706,265.2437,0.00016686,2.37e-05,0.0,0 STARLINK-4551,1 53575U 22101BA  24084.26713659  .00002370  00000-0  16686-3 0  9990,2 53575  53.2181  25.5634 0001321  94.8706 265.2437 15.08857205 89134,6917.828,95.436,540.607,538.779,0.0
53575.0,STARLINK-4551,PAYLOAD,2024-03-25 04:40:04,15.08861219,0.0001513,53.2188,21.4035,90.3366,269.78,0.0004899,7.522e-05,0.0,0 STARLINK-4551,1 53575U 22101BA  24085.19449957  .00007522  00000-0  48990-3 0  9997,2 53575  53.2188  21.4035 0001513  90.3366 269.7800 15.08861219 88588,6917.816,95.436,540.727,538.634,0.0
53575.0,STARLINK-4551,PAYLOAD,2024-03-25 12:37:00,15.08844224,0.0001337,53.2186,19.916,67.7352,292.3782,0.00015472,2.176e-05,0.0,0 STARLINK-4551,1 53575U 22101BA  24085.52570587  .00002176  00000-0  15472-3 0  9997,2 53575  53.2186  19.9160 0001337  67.7352 292.3782 15.08844224 88638,6917.867,95.437,540.657,538.808,0.0
53575.0,STARLINK-4551,PAYLOAD,2024-03-26 04:30:53,15.08828806,0.0001509,53.2186,16.942,76.9158,283.2003,-0.00016249,-2.872e-05,0.0,0 STARLINK-4551,1 53575U 22101BA  24086.18812143 -.00002872  00000-0 -16249-3 0  9995,2 53575  53.2186  16.9420 0001509  76.9158 283.2003 15.08828806 88735,6917.915,95.438,540.824,538.736,0.0
53575.0,STARLINK-4551,PAYLOAD,2024-03-27 02:46:15,15.08870635,0.0001608,53.2189,12.7801,80.4031,279.7143,0.0003548,5.368e-05,0.0,0 STARLINK-4551,1 53575U 22101BA  24087.11546295  .00005368  00000-0  35480-3 0  9990,2 53575  53.2189  12.7801 0001608  80.4031 279.7143 15.08870635 88872,6917.787,95.436,540.764,538.539,0.0
53575.0,STARLINK-4551,PAYLOAD,2024-03-27 12:18:35,15.08850692,0.0001604,53.2187,10.9961,82.908,277.2094,4.2053e-05,3.81e-06,0.0,0 STARLINK-4551,1 53575U 22101BA  24087.51290874  .00000381  00000-0  42053-4 0  9998,2 53575  53.2187  10.9961 0001604  82.9080 277.2094 15.08850692 88930,6917.848,95.437,540.822,538.603,0.0
